SCD 1                   
1 22490U 93009B   26189.37019666  .00000346  00000+0  43942-4 0  9990
2 22490  24.9699  76.7812 0041858   2.5054 159.8564 14.46126934764185
TECHSAT 1B (GO-32)      
1 25397U 98043D   26189.90993157  .00000035  00000+0  35510-4 0  9994
2 25397  99.0079 183.2175 0002015 124.8391 235.2977 14.24432499454421
SCD 2                   
1 25504U 98060A   26189.42901341  .00000317  00000+0  37738-4 0  9991
2 25504  24.9961 301.1645 0016730 348.4570  70.0412 14.45533420463409
DLR-TUBSAT              
1 25757U 99029B   26189.92493167  .00000047  00000+0  23559-4 0  9990
2 25757  98.6706 186.1452 0013007 285.5031  74.4727 14.52432344436406
TERRA                   
1 25994U 99068A   26189.93962939  .00000244  00000+0  58555-4 0  9998
2 25994  97.9444 238.6222 0003129 135.1795 327.3115 14.61120385412784
MAROC-TUBSAT            
1 27004U 01056D   26190.00112368 -.00000018  00000+0  32459-4 0  9990
2 27004  99.8094   7.2728 0020636  87.3626  77.8199 13.70263321229179
AQUA                    
1 27424U 02022A   26189.95349685  .00000518  00000+0  11265-3 0  9991
2 27424  98.4290 159.6731 0000753 101.4132 325.9430 14.62191028286457
SHIYAN-1 (SY-1)         
1 28220U 04012A   26189.77447567  .00010622  00000+0  32192-3 0  9994
2 28220  97.8684 269.2533 0004121 306.0581  54.0278 15.34339700214401
AURA                    
1 28376U 04026A   26189.89670279  .00000521  00000+0  11517-3 0  9997
2 28376  98.3427 146.5313 0001240  91.0533 269.0809 14.61361722169386
IRS-P5 (CARTOSAT-1)     
1 28649U 05017A   26189.95526612  .00001006  00000+0  10678-3 0  9995
2 28649  97.5304 212.0322 0001703  56.4450 303.6931 14.91106873147069
SINAH 1                 
1 28893U 05043D   26189.92262906  .00000216  00000+0  50390-4 0  9993
2 28893  98.2886 324.3757 0013937 203.4823 156.5744 14.64172795103708
RESURS-DK 1             
1 29228U 06021A   26189.65051699  .00001195  00000+0  73055-4 0  9998
2 29228  69.9328 283.9905 0006759 278.5152  81.5248 15.13304712105826
ARIRANG-2 (KOMPSAT-2)   
1 29268U 06031A   26189.96682821  .00000235  00000+0  52575-4 0  9992
2 29268  97.8319  13.3604 0014817  10.4551 144.4610 14.64673573 64668
LAPAN-TUBSAT            
1 29709U 07001A   26189.93704626 -.00000088  00000+0 -35097-5 0  9994
2 29709  98.1353 189.6521 0013407 112.2825 247.9813 14.85970512 54382
HAIYANG-1B              
1 31113U 07010A   26189.88995185  .00000062  00000+0  39202-4 0  9993
2 31113  98.3508 170.8947 0014413 133.2290 227.0100 14.31032226  3743
COSMO-SKYMED 1          
1 31598U 07023A   26189.98997964  .00001476  00000+0  13285-3 0  9994
2 31598  97.8845  22.0302 0001046  92.5630 267.5711 14.97200908 33054
TERRASAR-X              
1 31698U 07026A   26188.47915537  .00000240  00000+0  14624-4 0  9994
2 31698  97.4461 195.8972 0001878  86.9540 273.1909 15.19153986 56300
WORLDVIEW-1 (WV-1)      
1 32060U 07041A   26189.95403137  .00004052  00000+0  16766-3 0  9990
2 32060  97.3891 309.3908 0001007 244.9486 115.1647 15.24512421 46199
YAOGAN-3                
1 32289U 07055A   26190.00796315  .00000557  00000+0  62186-4 0  9993
2 32289  97.8148 219.6697 0001525  77.1756 282.9633 14.90863376  9121
COSMO-SKYMED 2          
1 32376U 07059A   26189.96692198  .00000786  00000+0  10533-3 0  9993
2 32376  97.8891  13.2495 0001414  92.3522 267.7853 14.82146918  5234
RADARSAT-2              
1 32382U 07061A   26190.00866740 -.00000199  00000+0 -60237-4 0  9993
2 32382  98.5786 196.6293 0001304  84.7106 275.4225 14.29981404969073
CARTOSAT-2A             
1 32783U 08021A   26189.96281917  .00000487  00000+0  72233-4 0  9992
2 32783  97.7621 237.9271 0012883  46.0316 314.1957 14.79271502982029
HUANJING 1A (HJ-1A)     
1 33320U 08041A   26189.94504968  .00000445  00000+0  59369-4 0  9993
2 33320  97.6698 174.9434 0020628  68.6516 291.6898 14.84039056961638
HUANJING 1B (HJ-1B)     
1 33321U 08041B   26189.99155595  .00000785  00000+0  10091-3 0  9992
2 33321  97.6533 178.0937 0037800 110.8305 249.6964 14.83357593961642
GEOEYE 1                
1 33331U 08042A   26189.94447146  .00000252  00000+0  56424-4 0  9995
2 33331  98.1329 263.6134 0004415   7.3547 352.7719 14.64645947953339
THEOS                   
1 33396U 08049A   26189.95105015 -.00000363  00000+0 -15048-3 0  9991
2 33396  98.5558 246.5270 0001132  85.4294 274.7012 14.20134760921059
COSMO-SKYMED 3          
1 33412U 08054A   26189.92163219  .00002328  00000+0  15911-3 0  9993
2 33412  97.8269  48.8521 0015217 186.1828 173.9213 15.07092324960211
YAOGAN-4                
1 33446U 08061A   26189.82237118  .00000707  00000+0  93027-4 0  9991
2 33446  97.9305 123.1735 0014397   6.5706 353.5694 14.83243579948872
GOSAT (IBUKI)           
1 33492U 09002A   26189.88847185 -.00000056  00000+0 -13080-5 0  9996
2 33492  98.0911 300.6998 0001149  80.6994 279.4341 14.67534557934640
DEIMOS-1                
1 35681U 09041A   26189.95867622  .00000491  00000+0  79612-4 0  9990
2 35681  97.7431 346.2455 0002637 101.5397 258.6109 14.75261158910099
